{"type": "FeatureCollection", "features": [ {"type": "Feature", "properties": {"norad_id": 66809, "name": "STARLINK-35979", "group": "last-30-days", "lat": -30.56092744606543, "lon": 149.58054862582554, "alt_km": 416.460341984709, "timestamp": "2025-12-23T05:02:10.750231+00:00", "meta": {"OBJECT_NAME": "STARLINK-35979", "OBJECT_ID": "2025-278U", "EPOCH": "2025-12-22T22:00:03.000096", "MEAN_MOTION": 15.51598986, "ECCENTRICITY": 0.00021403, "INCLINATION": 42.9994, "RA_OF_ASC_NODE": 190.619, "ARG_OF_PERICENTER": 263.0481, "MEAN_ANOMALY": 209.8462, "EPHEMERIS_TYPE": 0, "CLASSIFICATION_TYPE": "U", "NORAD_CAT_ID": 66809, "ELEMENT_SET_NO": 999, "REV_AT_EPOCH": 459, "BSTAR": -0.026206843, "MEAN_MOTION_DOT": -0.01427322, "MEAN_MOTION_DDOT": 0}, "tle": {"line1": "1 66809U 25278U   25356.91670139 -.01427322  00000+0 -26207-1 0  9990", "line2": "2 66809  42.9994 190.6190 0002140 263.0481 209.8462 15.51598986  4591"}}, "geometry": {"type": "Point", "coordinates": [149.58054862582554, -30.56092744606543]}}, {"type": "Feature", "properties": {"norad_id": 66810, "name": "STARLINK-36046", "group": "last-30-days", "lat": -32.52693771662418, "lon": 145.72554513728218, "alt_km": 416.5641098539927, "timestamp": "2025-12-23T05:02:10.750241+00:00", "meta": {"OBJECT_NAME": "STARLINK-36046", "OBJECT_ID": "2025-278V", "EPOCH": "2025-12-22T22:00:03.000096", "MEAN_MOTION": 15.5159329, "ECCENTRICITY": 0.00016866, "INCLINATION": 42.9994, "RA_OF_ASC_NODE": 190.6295, "ARG_OF_PERICENTER": 273.0175, "MEAN_ANOMALY": 196.0424, "EPHEMERIS_TYPE": 0, "CLASSIFICATION_TYPE": "U", "NORAD_CAT_ID": 66810, "ELEMENT_SET_NO": 999, "REV_AT_EPOCH": 436, "BSTAR": -0.025784314, "MEAN_MOTION_DOT": -0.01406215, "MEAN_MOTION_DDOT": 0}, "tle": {"line1": "1 66810U 25278V   25356.91670139 -.01406215  00000+0 -25784-1 0  9999", "line2": "2 66810  42.9994 190.6295 0001686 273.0175 196.0424 15.51593290  4367"}}, "geometry": {"type": "Point", "coordinates": [145.72554513728218, -32.52693771662418]}}, {"type": "Feature", "properties": {"norad_id": 66811, "name": "STARLINK-36045", "group": "last-30-days", "lat": -31.55958928546866, "lon": 147.67223470593296, "alt_km": 416.53159484133175, "timestamp": "2025-12-23T05:02:10.750253+00:00", "meta": {"OBJECT_NAME": "STARLINK-36045", "OBJECT_ID": "2025-278W", "EPOCH": "2025-12-22T22:00:03.000096", "MEAN_MOTION": 15.51595204, "ECCENTRICITY": 0.00017281, "INCLINATION": 42.9995, "RA_OF_ASC_NODE": 190.6251, "ARG_OF_PERICENTER": 271.2176, "MEAN_ANOMALY": 199.758, "EPHEMERIS_TYPE": 0, "CLASSIFICATION_TYPE": "U", "NORAD_CAT_ID": 66811, "ELEMENT_SET_NO": 999, "REV_AT_EPOCH": 459, "BSTAR": -0.025835409, "MEAN_MOTION_DOT": -0.0140882, "MEAN_MOTION_DDOT": 0}, "tle": {"line1": "1 66811U 25278W   25356.91670139 -.01408820  00000+0 -25835-1 0  9991", "line2": "2 66811  42.9995 190.6251 0001728 271.2176 199.7580 15.51595204  4594"}}, "geometry": {"type": "Point", "coordinates": [147.67223470593296, -31.55958928546866]}}, {"type": "Feature", "properties": {"norad_id": 66812, "name": "STARLINK-36054", "group": "last-30-days", "lat": -29.53916344458477, "lon": 151.44434748800626, "alt_km": 416.4788608289309, "timestamp": "2025-12-23T05:02:10.750263+00:00", "meta": {"OBJECT_NAME": "STARLINK-36054", "OBJECT_ID": "2025-278X", "EPOCH": "2025-12-22T22:00:03.000096", "MEAN_MOTION": 15.5160085, "ECCENTRICITY": 0.00017328, "INCLINATION": 42.9994, "RA_OF_ASC_NODE": 190.6155, "ARG_OF_PERICENTER": 269.8674, "MEAN_ANOMALY": 204.9402, "EPHEMERIS_TYPE": 0, "CLASSIFICATION_TYPE": "U", "NORAD_CAT_ID": 66812, "ELEMENT_SET_NO": 999, "REV_AT_EPOCH": 459, "BSTAR": -0.025995807, "MEAN_MOTION_DOT": -0.01416924, "MEAN_MOTION_DDOT": 0}, "tle": {"line1": "1 66812U 25278X   25356.91670139 -.01416924  00000+0 -25996-1 0  9994", "line2": "2 66812  42.9994 190.6155 0001732 269.8674 204.9402 15.51600850  4594"}}, "geometry": {"type": "Point", "coordinates": [151.44434748800626, -29.53916344458477]}}, {"type": "Feature", "properties": {"norad_id": 66813, "name": "STARLINK-36042", "group": "last-30-days", "lat": -28.490436762483437, "lon": 153.27081119514327, "alt_km": 416.34634180124704, "timestamp": "2025-12-23T05:02:10.750273+00:00", "meta": {"OBJECT_NAME": "STARLINK-36042", "OBJECT_ID": "2025-278Y", "EPOCH": "2025-12-22T22:00:03.000096", "MEAN_MOTION": 15.51598665, "ECCENTRICITY": 0.0001761, "INCLINATION": 42.9994, "RA_OF_ASC_NODE": 190.6101, "ARG_OF_PERICENTER": 274.77, "MEAN_ANOMALY": 201.9566, "EPHEMERIS_TYPE": 0, "CLASSIFICATION_TYPE": "U", "NORAD_CAT_ID": 66813, "ELEMENT_SET_NO": 999, "REV_AT_EPOCH": 459, "BSTAR": -0.025957262, "MEAN_MOTION_DOT": -0.01414952, "MEAN_MOTION_DDOT": 0}, "tle": {"line1": "1 66813U 25278Y   25356.91670139 -.01414952  00000+0 -25957-1 0  9991", "line2": "2 66813  42.9994 190.6101 0001761 274.7700 201.9566 15.51598665  4591"}}, "geometry": {"type": "Point", "coordinates": [153.27081119514327, -28.490436762483437]}}, {"type": "Feature", "properties": {"norad_id": 66814, "name": "STARLINK-35984", "group": "last-30-days", "lat": -21.737329649985963, "lon": 163.53186427269927, "alt_km": 415.9760255263627, "timestamp": "2025-12-23T05:02:10.750285+00:00", "meta": {"OBJECT_NAME": "STARLINK-35984", "OBJECT_ID": "2025-278Z", "EPOCH": "2025-12-22T22:00:03.000096", "MEAN_MOTION": 15.51610016, "ECCENTRICITY": 0.00018328, "INCLINATION": 42.9995, "RA_OF_ASC_NODE": 190.5809, "ARG_OF_PERICENTER": 275.9138, "MEAN_ANOMALY": 212.3128, "EPHEMERIS_TYPE": 0, "CLASSIFICATION_TYPE": "U", "NORAD_CAT_ID": 66814, "ELEMENT_SET_NO": 999, "REV_AT_EPOCH": 468, "BSTAR": -0.026310724, "MEAN_MOTION_DOT": -0.01432763, "MEAN_MOTION_DDOT": 0}, "tle": {"line1": "1 66814U 25278Z   25356.91670139 -.01432763  00000+0 -26311-1 0  9997", "line2": "2 66814  42.9995 190.5809 0001832 275.9138 212.3128 15.51610016  4689"}}, "geometry": {"type": "Point", "coordinates": [163.53186427269927, -21.737329649985963]}}, {"type": "Feature", "properties": {"norad_id": 66815, "name": "STARLINK-35985", "group": "last-30-days", "lat": -22.90977899177862, "lon": 161.89808217872596, "alt_km": 415.9984597455741, "timestamp": "2025-12-23T05:02:10.750295+00:00", "meta": {"OBJECT_NAME": "STARLINK-35985", "OBJECT_ID": "2025-278AA", "EPOCH": "2025-12-22T22:00:03.000096", "MEAN_MOTION": 15.51607171, "ECCENTRICITY": 0.00018338, "INCLINATION": 42.9994, "RA_OF_ASC_NODE": 190.5854, "ARG_OF_PERICENTER": 278.205, "MEAN_ANOMALY": 208.1074, "EPHEMERIS_TYPE": 0, "CLASSIFICATION_TYPE": "U", "NORAD_CAT_ID": 66815, "ELEMENT_SET_NO": 999, "REV_AT_EPOCH": 468, "BSTAR": -0.026269835, "MEAN_MOTION_DOT": -0.01430637, "MEAN_MOTION_DDOT": 0}, "tle": {"line1": "1 66815U 25278AA  25356.91670139 -.01430637  00000+0 -26270-1 0  9990", "line2": "2 66815  42.9994 190.5854 0001833 278.2050 208.1074 15.51607171  4680"}}, "geometry": {"type": "Point", "coordinates": [161.89808217872596, -22.90977899177862]}}, {"type": "Feature", "properties": {"norad_id": 66816, "name": "STARLINK-36098", "group": "last-30-days", "lat": -27.416229297452972, "lon": 155.06330200721968, "alt_km": 416.38286838126896, "timestamp": "2025-12-23T05:02:10.750305+00:00", "meta": {"OBJECT_NAME": "STARLINK-36098", "OBJECT_ID": "2025-278AB", "EPOCH": "2025-12-22T22:00:03.000096", "MEAN_MOTION": 15.51602199, "ECCENTRICITY": 0.00017134, "INCLINATION": 42.9993, "RA_OF_ASC_NODE": 190.605, "ARG_OF_PERICENTER": 271.2629, "MEAN_ANOMALY": 207.3794, "EPHEMERIS_TYPE": 0, "CLASSIFICATION_TYPE": "U", "NORAD_CAT_ID": 66816, "ELEMENT_SET_NO": 999, "REV_AT_EPOCH": 443, "BSTAR": -0.026044554, "MEAN_MOTION_DOT": -0.0141936, "MEAN_MOTION_DDOT": 0}, "tle": {"line1": "1 66816U 25278AB  25356.91670139 -.01419360  00000+0 -26045-1 0  9991", "line2": "2 66816  42.9993 190.6050 0001713 271.2629 207.3794 15.51602199  4439"}}, "geometry": {"type": "Point", "coordinates": [155.06330200721968, -27.416229297452972]}}, {"type": "Feature", "properties": {"norad_id": 66817, "name": "STARLINK-35995", "group": "last-30-days", "lat": -25.20365334105522, "lon": 158.5424293466562, "alt_km": 416.264807110877, "timestamp": "2025-12-23T05:02:10.750317+00:00", "meta": {"OBJECT_NAME": "STARLINK-35995", "OBJECT_ID": "2025-278AC", "EPOCH": "2025-12-22T22:00:03.000096", "MEAN_MOTION": 15.51599877, "ECCENTRICITY": 0.00017433, "INCLINATION": 42.9995, "RA_OF_ASC_NODE": 190.5951, "ARG_OF_PERICENTER": 271.786, "MEAN_ANOMALY": 210.6914, "EPHEMERIS_TYPE": 0, "CLASSIFICATION_TYPE": "U", "NORAD_CAT_ID": 66817, "ELEMENT_SET_NO": 999, "REV_AT_EPOCH": 459, "BSTAR": -0.026009412, "MEAN_MOTION_DOT": -0.01417549, "MEAN_MOTION_DDOT": 0}, "tle": {"line1": "1 66817U 25278AC  25356.91670139 -.01417549  00000+0 -26009-1 0  9999", "line2": "2 66817  42.9995 190.5951 0001743 271.7860 210.6914 15.51599877  4592"}}, "geometry": {"type": "Point", "coordinates": [158.5424293466562, -25.20365334105522]}}, {"type": "Feature", "properties": {"norad_id": 66818, "name": "STARLINK-35994", "group": "last-30-days", "lat": -26.31817443885414, "lon": 156.82351627477584, "alt_km": 416.19443805362425, "timestamp": "2025-12-23T05:02:10.750327+00:00", "meta": {"OBJECT_NAME": "STARLINK-35994", "OBJECT_ID": "2025-278AD", "EPOCH": "2025-12-22T22:00:03.000096", "MEAN_MOTION": 15.51611376, "ECCENTRICITY": 0.0001879, "INCLINATION": 42.999, "RA_OF_ASC_NODE": 190.6009, "ARG_OF_PERICENTER": 274.8909, "MEAN_ANOMALY": 205.6678, "EPHEMERIS_TYPE": 0, "CLASSIFICATION_TYPE": "U", "NORAD_CAT_ID": 66818, "ELEMENT_SET_NO": 999, "REV_AT_EPOCH": 459, "BSTAR": -0.026363799, "MEAN_MOTION_DOT": -0.01435434, "MEAN_MOTION_DDOT": 0}, "tle": {"line1": "1 66818U 25278AD  25356.91670139 -.01435434  00000+0 -26364-1 0  9997", "line2": "2 66818  42.9990 190.6009 0001879 274.8909 205.6678 15.51611376  4591"}}, "geometry": {"type": "Point", "coordinates": [156.82351627477584, -26.31817443885414]}}]}